NORAD_CAT_ID,OBJECT_NAME,OBJECT_TYPE,EPOCH,MEAN_MOTION,ECCENTRICITY,INCLINATION,RA_OF_ASC_NODE,ARG_OF_PERICENTER,MEAN_ANOMALY,BSTAR,MEAN_MOTION_DOT,MEAN_MOTION_DDOT,TLE_LINE0,TLE_LINE1,TLE_LINE2,SEMIMAJOR_AXIS,PERIOD,APOGEE,PERIGEE,DECAYED
51759.0,STARLINK-3456,PAYLOAD,2024-04-10 16:26:31,15.08852437,0.0001295,53.2142,202.5829,91.4346,268.6795,0.00022115,3.235e-05,0.0,0 STARLINK-3456,1 51759U 22016AX  24101.68508419  .00003235  00000-0  22115-3 0  9994,2 51759  53.2142 202.5829 0001295  91.4346 268.6795 15.08852437118330,6917.842,95.437,540.603,538.812,0.0
51759.0,STARLINK-3456,PAYLOAD,2024-04-11 11:31:09,15.08834621,0.000148,53.2202,199.0166,88.6439,271.4723,9.5524e-05,1.232e-05,0.0,0 STARLINK-3456,1 51759U 22016AX  24102.47997340  .00001232  00000-0  95524-4 0  9997,2 51759  53.2202 199.0166 0001480  88.6439 271.4723 15.08834621119595,6917.897,95.438,540.786,538.738,0.0
51759.0,STARLINK-3456,PAYLOAD,2024-04-12 12:57:19,15.08844339,0.0001326,53.2165,194.2558,90.8537,269.2607,3.6269e-05,2.89e-06,0.0,0 STARLINK-3456,1 51759U 22016AX  24103.53980971  .00000289  00000-0  36269-4 0  9999,2 51759  53.2165 194.2558 0001326  90.8537 269.2607 15.08844339119759,6917.867,95.437,540.649,538.815,0.0
51759.0,STARLINK-3456,PAYLOAD,2024-04-13 04:51:11,15.08834193,0.0001574,53.2165,191.2889,82.418,277.6991,0.00011981,1.619e-05,0.0,0 STARLINK-3456,1 51759U 22016AX  24104.20221848  .00001619  00000-0  11981-3 0  9996,2 51759  53.2165 191.2889 0001574  82.4180 277.6991 15.08834193119856,6917.898,95.438,540.852,538.674,0.0
51759.0,STARLINK-3456,PAYLOAD,2024-04-13 12:48:07,15.08835469,0.000156,53.2166,189.7993,115.677,244.4383,5.9746e-05,6.63e-06,0.0,0 STARLINK-3456,1 51759U 22016AX  24104.53341705  .00000663  00000-0  59746-4 0  9997,2 51759  53.2166 189.7993 0001560 115.6770 244.4383 15.08835469118767,6917.894,95.438,540.838,538.68,0.0
51759.0,STARLINK-3456,PAYLOAD,2024-04-14 12:38:53,15.0885148,0.0001362,53.2167,185.3399,96.6161,263.4986,0.0002179,3.183e-05,0.0,0 STARLINK-3456,1 51759U 22016AX  24105.52701239  .00003183  00000-0  21790-3 0  9996,2 51759  53.2167 185.3399 0001362  96.6161 263.4986 15.08851480120058,6917.845,95.437,540.653,538.768,0.0
51759.0,STARLINK-3456,PAYLOAD,2024-04-15 12:29:41,15.08847707,0.0001917,53.2179,180.8813,59.9588,300.1594,0.00022234,3.253e-05,0.0,0 STARLINK-3456,1 51759U 22016AX  24106.52061641  .00003253  00000-0  22234-3 0  9995,2 51759  53.2179 180.8813 0001917  59.9588 300.1594 15.08847707120201,6917.857,95.437,541.048,538.396,0.0
51759.0,STARLINK-3456,PAYLOAD,2024-04-15 14:05:03,15.08862265,0.0001865,53.2181,180.5861,69.7858,290.3334,-0.00017406,-3.059e-05,0.0,0 STARLINK-3456,1 51759U 22016AX  24106.58684605 -.00003059  00000-0 -17406-3 0  9993,2 51759  53.2181 180.5861 0001865  69.7858 290.3334 15.08862265119076,6917.812,95.436,540.968,538.387,0.0
51759.0,STARLINK-3456,PAYLOAD,2024-04-16 04:23:32,15.08845562,0.0001949,53.2175,177.9071,64.4903,295.6291,7.5199e-05,9.09e-06,0.0,0 STARLINK-3456,1 51759U 22016AX  24107.18301651  .00000909  00000-0  75199-4 0  9990,2 51759  53.2175 177.9071 0001949  64.4903 295.6291 15.08845562120307,6917.863,95.437,541.077,538.38,0.0
51759.0,STARLINK-3456,PAYLOAD,2024-04-16 12:20:27,15.08859242,0.0001781,53.2174,176.4168,62.725,297.3923,0.00027165,4.04e-05,0.0,0 STARLINK-3456,1 51759U 22016AX  24107.51420825  .00004040  00000-0  27165-3 0  9991,2 51759  53.2174 176.4168 0001781  62.7250 297.3923 15.08859242120353,6917.822,95.436,540.919,538.455,0.0
51759.0,STARLINK-3456,PAYLOAD,2024-04-17 04:14:19,15.08851017,0.0001666,53.2181,173.446,76.3325,283.7853,7.3983e-05,8.9e-06,0.0,0 STARLINK-3456,1 51759U 22016AX  24108.17661097  .00000890  00000-0  73983-4 0  9991,2 51759  53.2181 173.4460 0001666  76.3325 283.7853 15.08851017120453,6917.847,95.437,540.864,538.559,0.0
51759.0,STARLINK-3456,PAYLOAD,2024-04-17 10:35:51,15.08851631,0.0001613,53.2167,172.2564,78.9997,281.1177,0.00019786,2.863e-05,0.0,0 STARLINK-3456,1 51759U 22016AX  24108.44156935  .00002863  00000-0  19786-3 0  9993,2 51759  53.2167 172.2564 0001613  78.9997 281.1177 15.08851631119354,6917.845,95.437,540.826,538.594,0.0
51759.0,STARLINK-3456,PAYLOAD,2024-04-17 21:43:33,15.08843144,0.0001724,53.2153,170.1768,69.8539,290.2639,9.1195e-05,1.164e-05,0.0,0 STARLINK-3456,1 51759U 22016AX  24108.90525278  .00001164  00000-0  91195-4 0  9992,2 51759  53.2153 170.1768 0001724  69.8539 290.2639 15.08843144119428,6917.871,95.437,540.928,538.543,0.0
51759.0,STARLINK-3456,PAYLOAD,2024-04-18 04:05:07,15.08826558,0.0001769,53.2159,168.9859,86.2936,273.8258,-8.3117e-05,-1.61e-05,0.0,0 STARLINK-3456,1 51759U 22016AX  24109.17022297 -.00001610  00000-0 -83117-4 0  9998,2 51759  53.2159 168.9859 0001769  86.2936 273.8258 15.08826558120609,6917.921,95.438,541.01,538.563,0.0
51759.0,STARLINK-3456,PAYLOAD,2024-04-18 10:26:39,15.08826647,0.000149,53.2168,167.7937,99.5791,260.537,-0.00023842,-4.079e-05,0.0,0 STARLINK-3456,1 51759U 22016AX  24109.43518317 -.00004079  00000-0 -23842-3 0  9990,2 51759  53.2168 167.7937 0001490  99.5791 260.5370 15.08826647119504,6917.921,95.438,540.817,538.755,0.0
51759.0,STARLINK-3456,PAYLOAD,2024-04-19 03:55:54,15.08836756,0.0001795,53.2177,164.5199,135.1046,225.0092,-1.4683e-05,-5.22e-06,0.0,0 STARLINK-3456,1 51759U 22016AX  24110.16382209 -.00000522  00000-0 -14683-4 0  9994,2 51759  53.2177 164.5199 0001795 135.1046 225.0092 15.08836756120755,6917.89,95.438,540.997,538.514,0.0
51759.0,STARLINK-3456,PAYLOAD,2024-04-19 10:17:26,15.08844922,0.0001524,53.2168,163.3335,110.4822,249.6334,0.00035561,5.377e-05,0.0,0 STARLINK-3456,1 51759U 22016AX  24110.42878280  .00005377  00000-0  35561-3 0  9990,2 51759  53.2168 163.3335 0001524 110.4822 249.6334 15.08844922119654,6917.865,95.437,540.785,538.676,0.0
51759.0,STARLINK-3456,PAYLOAD,2024-04-20 03:46:41,15.08846683,0.000153,53.2177,160.0659,86.0293,274.0874,0.00047044,7.208e-05,0.0,0 STARLINK-3456,1 51759U 22016AX  24111.15742681  .00007208  00000-0  47044-3 0  9990,2 51759  53.2177 160.0659 0001530  86.0293 274.0874 15.08846683120901,6917.86,95.437,540.783,538.667,0.0
51759.0,STARLINK-3456,PAYLOAD,2024-04-20 10:08:13,15.08851074,0.000156,53.2173,158.8739,96.5511,263.5659,0.00040018,6.089e-05,0.0,0 STARLINK-3456,1 51759U 22016AX  24111.42238348  .00006089  00000-0  40018-3 0  9990,2 51759  53.2173 158.8739 0001560  96.5511 263.5659 15.08851074119804,6917.847,95.437,540.791,538.632,0.0
51759.0,STARLINK-3456,PAYLOAD,2024-04-21 03:37:29,15.08821143,0.0001842,53.2173,155.6023,66.6944,293.4242,-0.0002635,-4.477e-05,0.0,0 STARLINK-3456,1 51759U 22016AX  24112.15103912 -.00004477  00000-0 -26350-3 0  9993,2 51759  53.2173 155.6023 0001842  66.6944 293.4242 15.08821143121050,6917.938,95.439,541.077,538.529,0.0
51759.0,STARLINK-3456,PAYLOAD,2024-04-21 09:59:02,15.08815392,0.0001639,53.217,154.4129,95.5184,264.5995,-0.00031023,-5.219e-05,0.0,0 STARLINK-3456,1 51759U 22016AX  24112.41600445 -.00005219  00000-0 -31023-3 0  9993,2 51759  53.2170 154.4129 0001639  95.5184 264.5995 15.08815392119951,6917.956,95.439,540.954,538.687,0.0
51759.0,STARLINK-3456,PAYLOAD,2024-04-22 09:49:48,15.08859,0.0002151,53.2175,149.955,69.0181,291.1041,-6.862e-05,-1.381e-05,0.0,0 STARLINK-3456,1 51759U 22016AX  24113.40959169 -.00001381  00000-0 -68620-4 0  9993,2 51759  53.2175 149.9550 0002151  69.0181 291.1041 15.08859000121243,6917.822,95.436,541.175,538.199,0.0
51759.0,STARLINK-3456,PAYLOAD,2024-04-22 11:25:11,15.0885691,0.0001591,53.2161,149.6556,93.836,266.2814,0.00057324,8.851e-05,0.0,0 STARLINK-3456,1 51759U 22016AX  24113.47583319  .00008851  00000-0  57324-3 0  9995,2 51759  53.2161 149.6556 0001591  93.8360 266.2814 15.08856910120115,6917.829,95.436,540.794,538.593,0.0
51759.0,STARLINK-3456,PAYLOAD,2024-04-23 11:15:59,15.08851833,0.0001579,53.2156,145.195,81.0762,279.0409,0.00030791,4.617e-05,0.0,0 STARLINK-3456,1 51759U 22016AX  24114.46943552  .00004617  00000-0  30791-3 0  9999,2 51759  53.2156 145.1950 0001579  81.0762 279.0409 15.08851833121403,6917.844,95.437,540.802,538.617,0.0
51759.0,STARLINK-3456,PAYLOAD,2024-04-24 11:06:46,15.08848785,0.0001633,53.2172,140.7307,87.0941,273.0238,-0.00010489,-1.957e-05,0.0,0 STARLINK-3456,1 51759U 22016AX  24115.46303792 -.00001957  00000-0 -10489-3 0  9994,2 51759  53.2172 140.7307 0001633  87.0941 273.0238 15.08848785121556,6917.854,95.437,540.848,538.589,0.0
51759.0,STARLINK-3456,PAYLOAD,2024-04-25 10:57:32,15.0885308,0.0001799,53.2175,136.2711,78.805,281.3144,0.00014099,1.957e-05,0.0,0 STARLINK-3456,1 51759U 22016AX  24116.45662537  .00001957  00000-0  14099-3 0  9998,2 51759  53.2175 136.2711 0001799  78.8050 281.3144 15.08853080121709,6917.84,95.437,540.95,538.461,0.0
51759.0,STARLINK-3456,PAYLOAD,2024-04-25 22:05:14,15.08844075,0.0001764,53.217,134.1855,114.4465,245.6711,0.00013772,1.905e-05,0.0,0 STARLINK-3456,1 51759U 22016AX  24116.92030765  .00001905  00000-0  13772-3 0  9992,2 51759  53.2170 134.1855 0001764 114.4465 245.6711 15.08844075120637,6917.868,95.437,540.953,538.513,0.0
51759.0,STARLINK-3456,PAYLOAD,2024-04-26 04:26:47,15.0884295,0.0001846,53.2165,133.0013,110.948,249.171,9.496e-05,1.224e-05,0.0,0 STARLINK-3456,1 51759U 22016AX  24117.18526905  .00001224  00000-0  94960-4 0  9990,2 51759  53.2165 133.0013 0001846 110.9480 249.1710 15.08842950121813,6917.871,95.437,541.013,538.459,0.0
51759.0,STARLINK-3456,PAYLOAD,2024-04-26 10:48:19,15.08846467,0.0001571,53.2165,131.8123,98.8367,261.2803,0.00011102,1.48e-05,0.0,0 STARLINK-3456,1 51759U 22016AX  24117.45022638  .00001480  00000-0  11102-3 0  9994,2 51759  53.2165 131.8123 0001571  98.8367 261.2803 15.08846467120717,6917.861,95.437,540.812,538.639,0.0
51759.0,STARLINK-3456,PAYLOAD,2024-04-27 10:39:06,15.08845916,0.0001528,53.2163,127.3515,87.4513,272.6654,-2.9605e-05,-7.59e-06,0.0,0 STARLINK-3456,1 51759U 22016AX  24118.44383045 -.00000759  00000-0 -29605-4 0  9994,2 51759  53.2163 127.3515 0001528  87.4513 272.6654 15.08845916122001,6917.862,95.437,540.784,538.67,0.0
